OPTICUBE 04             
1 41851U 16067D   18163.77854743  .00000222  00000-0  24780-4 0  9994
2 41851  97.9231 251.8417 0009229 171.5547 188.5831 14.96667385 86432
AEROCUBE 8D             
1 41852U 16067E   18163.48054696 -.00000163  00000-0 -89931-5 0  9998
2 41852  97.9253 251.3844 0009721 171.8868 188.2512 14.96497041 86378
AEROCUBE 8C             
1 41853U 16067F   18163.22712137 -.00000242  00000-0 -16010-4 0  9997
2 41853  97.9247 251.0911 0010108 175.7489 184.3819 14.96456887 86333
PROMETHEUS 2-1          
1 41854U 16067G   18163.83569065  .00000173  00000-0  20530-4 0  9998
2 41854  97.9250 251.7150 0010633 173.7683 186.3672 14.96559031 86421
PROMETHEUS 2-3          
1 41855U 16067H   18163.77145552  .00000257  00000-0  27902-4 0  9996
2 41855  97.9252 251.6542 0010833 174.3231 185.8114 14.96556243 86412
ITF-2                   
1 41932U 98067KU  18163.54911367  .00026649  00000-0  17085-3 0  9995
2 41932  51.6331   4.7414 0004284 181.0735 179.0257 15.76067644 80031
WASEDA-SAT3             
1 41933U 98067KV  18163.54471997  .00050168  00000-0  23600-3 0  9999
2 41933  51.6343 357.8100 0003701 195.1235 164.9658 15.82604914 80125
AOBA-VELOX 3            
1 41935U 98067KX  18163.57688996  .00039223  00000-0  20903-3 0  9995
2 41935  51.6362   0.3667 0004101 189.5375 170.5549 15.80007010 80194
INS-1B                  
1 41954U 17008G   18163.85293282  .00001017  00000-0  46254-4 0  9991
2 41954  97.4463 227.8543 0009789  19.1680 340.9923 15.23000859 73347
BGUSAT                  
1 41999U 17008BD  18163.56794007  .00001678  00000-0  71002-4 0  9991
2 41999  97.4508 228.6152 0009370  38.0127 322.1770 15.24578256 72728
DIDO-2                  
1 42000U 17008BE  18163.53243960  .00000770  00000-0  35540-4 0  9998
2 42000  97.4481 227.9658 0009599  38.1209 322.0705 15.23190704 72690
PEASSS                  
1 42015U 17008BV  18163.57898806  .00000928  00000-0  41238-4 0  9999
2 42015  97.4478 228.4631 0007681  47.0631 313.1249 15.24000101 73212
AL-FARABI 1             
1 42016U 17008BW  18163.57287127  .00001214  00000-0  52435-4 0  9998
2 42016  97.4486 228.6509 0007571  47.6035 312.5842 15.24411078 73345
NAYIF-1 (EO-88)         
1 42017U 17008BX  18163.56719722  .00001180  00000-0  50999-4 0  9994
2 42017  97.4484 228.6519 0007549  47.8045 312.3832 15.24435182 73364
HAVELSAT                
1 42700U 98067LH  18163.82287579  .00021761  00000-0  17425-3 0  9999
2 42700  51.6355  17.0956 0003796 218.0841 141.9889 15.70985950 61339
CXBN-2                  
1 42704U 98067LM  18163.01580084  .00021505  00000-0  17580-3 0  9999
2 42704  51.6366  22.2226 0002720 152.5417 207.5725 15.70498141 61115
ICECUBE                 
1 42705U 98067LN  18163.82996105  .00055341  00000-0  30558-3 0  9999
2 42705  51.6455  10.4817 0002798 195.0981 164.9937 15.79076474 61406
PHOENIX                 
1 42706U 98067LP  18163.83971334  .00015931  00000-0  13990-3 0  9990
2 42706  51.6364  18.7195 0001974 153.7016 206.4081 15.68999332 61228
X-CUBESAT               
1 42707U 98067LQ  18163.80511904  .00024708  00000-0  19306-3 0  9990
2 42707  51.6329  16.9120 0002175 162.0386 198.0689 15.71490761 61232
QBEE50-LTU-OC           
1 42708U 98067LR  18163.81329153  .00023065  00000-0  18710-3 0  9998
2 42708  51.6368  17.7756 0002086 162.3858 197.7212 15.70637271 61188
ALTAIR PATHFINDER       
1 42711U 98067LS  18163.20951300  .00010327  00000-0  11154-3 0  9992
2 42711  51.6372  28.7763 0004342 153.8105 206.3111 15.64278081 60697
SHARC                   
1 42712U 98067LT  18163.85108841  .00016737  00000-0  17840-3 0  9997
2 42712  51.6387  27.1174 0003157 160.9970 199.1143 15.64099169 61014
ZA-AEROSAT              
1 42713U 98067LU  18163.86490886  .00015459  00000-0  14330-3 0  9993
2 42713  51.6357  21.1267 0002951 147.0299 213.0882 15.67691399 60853
LINK                    
1 42714U 98067LV  18163.39332430  .00058030  00000-0  31100-3 0  9998
2 42714  51.6256  12.5472 0003008 172.6425 187.4621 15.79715713 61039
CSUNSAT 1               
1 42715U 98067LW  18163.82200922  .00016972  00000-0  15311-3 0  9992
2 42715  51.6366  20.8601 0004472 151.8717 208.2522 15.68275589 60858
SPACECUBE               
1 42717U 98067LY  18163.83930167  .00021569  00000-0  17570-3 0  9993
2 42717  51.6341  17.9281 0002755 208.3069 151.7779 15.70581665 60263
HOOPOE                  
1 42718U 98067LZ  18163.81577678  .00030461  00000-0  22056-3 0  9992
2 42718  51.6350  15.5226 0002909 206.6356 153.4494 15.73170036 60293
CHALLENGER              
1 42721U 98067MA  18163.82070140  .00097723  00000-0  37882-3 0  9996
2 42721  51.6282   5.6160 0005470 223.0232 137.0345 15.86387166 60123
NJUST-1                 
1 42722U 98067MB  18163.85908969  .00013113  00000-0  12702-3 0  9994
2 42722  51.6365  22.6093 0005284 203.9824 156.0927 15.66752727 59905
UNSW-ECO                
1 42723U 98067MC  18163.81843339  .00031821  00000-0  22340-3 0  9995
2 42723  51.6377  15.5724 0004811 202.7730 157.3056 15.73861687 59977
LILACSAT-1              
1 42725U 98067ME  18163.84406300  .00019533  00000-0  16900-3 0  9994
2 42725  51.6366  20.2502 0004383 202.2158 157.8650 15.69185942 59835
NSIGHT-1                
1 42726U 98067MF  18163.83371337  .00005250  00000-0  66201-4 0  9996
2 42726  51.6397  29.2510 0004957 207.8111 152.2618 15.61468528 59722
SNUSAT-1                
1 42727U 98067MG  18163.85543118  .00018876  00000-0  16391-3 0  9999
2 42727  51.6348  20.2744 0006422 173.6516 186.4564 15.69113456 59800
I-INSPIRE II            
1 42731U 98067ML  18163.81314746  .00031995  00000-0  21873-3 0  9991
2 42731  51.6344  14.7114 0005779 168.4860 191.6272 15.74471642 59767
POLYITAN-2-SAU          
1 42732U 98067MM  18163.04662235  .00021636  00000-0  17141-3 0  9990
2 42732  51.6357  21.6318 0005941 158.8549 201.2695 15.71235474 59601
SNUSAT-1B               
1 42733U 98067MN  18163.89269664  .00020174  00000-0  16997-3 0  9997
2 42733  51.6359  19.0489 0006065 164.6810 195.4372 15.69800450 59715
EXALTA-1                
1 42734U 98067MP  18163.86085094  .00035955  00000-0  23881-3 0  9991
2 42734  51.6316  14.2525 0006251 189.2692 170.8193 15.75074514 59725
BEEAGLESAT              
1 42736U 98067MR  18163.88575953  .00017408  00000-0  15559-3 0  9999
2 42736  51.6356  20.5025 0005534 201.9629 158.1131 15.68477288 59752
UCLSAT                  
1 42765U 17036A   18163.34345532  .00001048  00000-0  49094-4 0  9992
2 42765  97.4011 223.2703 0013642  93.6710 266.6086 15.21842678 54567
LITUANICASAT-2          
1 42768U 17036D   18163.46500533  .00001775  00000-0  82008-4 0  9991
2 42768  97.4027 222.9926 0017540  84.2993 276.0242 15.21359276 53846
AALTO-1                 
1 42775U 17036L   18163.36134817  .00000691  00000-0  34410-4 0  9996
2 42775  97.4006 222.7852 0015966  82.8448 277.4603 15.20744648 53763
URSA MAIOR              
1 42776U 17036M   18163.61135267  .00000729  00000-0  36071-4 0  9992
2 42776  97.4012 223.0807 0015810  82.2659 278.0371 15.20821633 53805
COMPASS 2               
1 42777U 17036N   18163.47453675  .00001350  00000-0  62536-4 0  9999
2 42777  97.4032 223.3251 0014779  85.9412 274.3513 15.21721104 53792
DIAMOND RED             
1 42783U 17036U   18163.40690855  .00000874  00000-0  41912-4 0  9997
2 42783  97.4012 223.1922 0014234  93.4933 266.7931 15.21451615 53783
PEGASUS                 
1 42784U 17036V   18163.70909373  .00000942  00000-0  44678-4 0  9997
2 42784  97.4014 223.5573 0014141  92.6168 267.6687 15.21653376 53832
DIAMOND GREEN           
1 42785U 17036W   18163.40580423  .00000873  00000-0  41834-4 0  9990
2 42785  97.4015 223.2041 0014127  93.9143 266.3708 15.21453966 53778
DIAMOND BLUE            
1 42786U 17036X   18163.40494082  .00000884  00000-0  42327-4 0  9996
2 42786  97.4014 223.2034 0013962  94.1526 266.1306 15.21453652 53778
NUDTSAT                 
1 42787U 17036Y   18163.82628569  .00001398  00000-0  63759-4 0  9995
2 42787  97.4021 223.8695 0013703  92.1012 268.1794 15.22225529 53704
SUCHAI                  
1 42788U 17036Z   18163.14114981  .00001138  00000-0  52928-4 0  9997
2 42788  97.4016 223.0947 0013754  94.2152 266.0656 15.21918715 53827
SKCUBE                  
1 42789U 17036AA  18163.40344510  .00001102  00000-0  51399-4 0  9992
2 42789  97.4014 223.3479 0013595  93.4267 266.8525 15.21882984 53786
VZLUSAT-1               
1 42790U 17036AB  18163.61844687  .00001363  00000-0  62203-4 0  9992
2 42790  97.4018 223.6727 0013275  93.1034 267.1722 15.22245496 53825
ROBUSTA-1B              
1 42792U 17036AD  18163.83276966  .00001079  00000-0  50172-4 0  9993
2 42792  97.4012 223.8318 0013170  93.0606 267.2137 15.22024996 53862
CICERO 6                
1 42793U 17036AE  18163.36632518  .00000757  00000-0  36290-4 0  9998
2 42793  97.4005 223.3708 0012311  95.3684 264.8957 15.21868711 53863
D-SAT                   
1 42794U 17036AF  18163.68093106  .00000219  00000-0  24891-4 0  9995
2 42794  97.5918 218.5079 0125605 297.5967  61.2542 14.90869488 53053
TOKI                    
1 42820U 98067MU  18163.82622367  .00017051  00000-0  15812-3 0  9995
2 42820  51.6358  23.1134 0003662 142.7064 217.4187 15.67590949 53172
MAZAALAI (NUMSAT-1)     
1 42822U 98067MW  18163.54021400  .00017162  00000-0  16096-3 0  9995
2 42822  51.6359  24.9590 0003649 144.9327 215.1910 15.67304808 53122
BRAC ONNESHA            
1 42823U 98067MX  18163.09019643  .00016771  00000-0  15689-3 0  9994
2 42823  51.6369  27.2210 0005720 162.9288 197.1901 15.67379764 53039
NIGERIAEDUSAT-1         
1 42824U 98067MY  18163.81514281  .00016875  00000-0  15894-3 0  9996
2 42824  51.6369  23.8284 0005589 166.2764 193.8385 15.67205453 53135
CORVUS BC2              
1 42846U 17042X   18163.37710947 -.00000047  00000-0  72362-6 0  9993
2 42846  97.5980  66.4246 0008809 204.2586 155.8220 14.91818516 49655
